PHASE 3B (AO-10)        
1 14129U 83058B   21021.82556569  .00000147  00000-0  00000-0 0  9995
2 14129  25.7887 179.0897 6065622 303.3308  12.4702  2.05866858254908
UOSAT 2 (UO-11)         
1 14781U 84021B   21027.80704144  .00000166  00000-0  26363-4 0  9993
2 14781  97.5900  34.5989 0008479 174.0747 186.0569 14.83241482986082
LUSAT (LO-19)           
1 20442U 90005G   21027.58159106 -.00000003  00000-0  15604-4 0  9997
2 20442  98.7231 341.9138 0011113 211.1331 148.9196 14.32974617620653
EYESAT A (AO-27)        
1 22825U 93061C   21027.75044756  .00000009  00000-0  21311-4 0  9999
2 22825  98.9240  41.8585 0009473  85.2477 274.9786 14.30104672426148
ITAMSAT (IO-26)         
1 22826U 93061D   21027.47430342  .00000007  00000-0  20469-4 0  9990
2 22826  98.9182  41.4979 0009961  74.8703 285.3579 14.30442210426076
RADIO ROSTO (RS-15)     
1 23439U 94085A   21027.59705379 -.00000037  00000-0  15882-3 0  9992
2 23439  64.8156 243.7681 0156521   0.5931 359.5151 11.27570215 74452
JAS-2 (FO-29)           
1 24278U 96046B   21027.51345293 -.00000043  00000-0 -94990-5 0  9997
2 24278  98.5834 114.0791 0350812 154.5967 207.2889 13.53102203207185
TECHSAT 1B (GO-32)      
1 25397U 98043D   21027.42633361 -.00000016  00000-0  12324-4 0  9994
2 25397  98.7557 333.4909 0002188 111.5416 248.5996 14.23700013171427
ISS (ZARYA)             
1 25544U 98067A   21027.77992426  .00003336  00000-0  68893-4 0  9991
2 25544  51.6465 317.1909 0002399 302.6503 164.1536 15.48908950266831
PCSAT (NO-44)           
1 26931U 01043C   21027.44706686 -.00000017  00000-0  25347-4 0  9996
2 26931  67.0514 284.3429 0007408 271.1091  88.9162 14.30604034  9073
SAUDISAT 1C (SO-50)     
1 27607U 02058C   21027.41387390  .00000045  00000-0  26792-4 0  9993
2 27607  64.5557  49.6136 0029427  83.1842 277.2607 14.75705937973744
CUTE-1 (CO-55)          
1 27844U 03031E   21027.49805121  .00000064  00000-0  48208-4 0  9990
2 27844  98.6817  37.8377 0010761 123.9096 236.3106 14.22284541911944
CUBESAT XI-IV (CO-57)   
1 27848U 03031J   21027.51983463  .00000052  00000-0  43225-4 0  9994
2 27848  98.6878  38.4274 0010507 135.6732 224.5289 14.21864944911786
MOZHAYETS 4 (RS-22)     
1 27939U 03042A   21027.73547487  .00000154  00000-0  36273-4 0  9991
2 27939  98.1171 166.0097 0012942  11.1942 348.9545 14.66937330926898
CUBESAT XI-V            
1 28895U 05043F   21027.62069863  .00000173  00000-0  42015-4 0  9993
2 28895  98.0365 164.1287 0015538 295.7451  64.2148 14.63858092813406
CUTE-1.7+APD II (CO-65) 
1 32785U 08021C   21027.44891326  .00000353  00000-0  43421-4 0  9994
2 32785  97.5957  11.9024 0014420 108.5530 251.7256 14.88619251691198
DELFI-C3 (DO-64)        
1 32789U 08021G   21027.07951337  .00001621  00000-0  10797-3 0  9994
2 32789  97.3937  67.8109 0010340 267.8032  92.2013 15.08428159695512
SEEDS II (CO-66)        
1 32791U 08021J   21027.52881393  .00000621  00000-0  67691-4 0  9996
2 32791  97.5583  18.0125 0014711  77.2965 282.9897 14.91258948691853
YUBILEINY (RS-30)       
1 32953U 08025A   21027.70411278  .00000028  00000-0  12906-3 0  9990
2 32953  82.5054 138.4733 0018447 283.5396  76.3632 12.43099604575492
KKS-1 (KISEKI)          
1 33499U 09002H   21027.56655761  .00000179  00000-0  34130-4 0  9994
2 33499  98.2885 254.2181 0010063 125.8487 234.3657 14.75611091645637
SWISSCUBE               
1 35932U 09051B   21027.52546330  .00000178  00000-0  51155-4 0  9994
2 35932  98.6068 223.0445 0008026 153.2419 206.9193 14.56481073602447
BEESAT-1                
1 35933U 09051C   21027.77175793  .00000157  00000-0  46356-4 0  9997
2 35933  98.6046 225.1531 0006035 162.4043 197.7364 14.56545966602636
ITUPSAT1                
1 35935U 09051E   21027.48619436  .00000130  00000-0  41025-4 0  9993
2 35935  98.6150 225.0232 0008315 166.3331 193.8092 14.55683606602264
XIWANG-1 (HOPE-1)       
1 36122U 09072B   21027.46596549 -.00000022  00000-0  53048-4 0  9991
2 36122 100.1163  14.0759 0007987  66.4282 293.7671 13.16358688534346
JUGNU                   
1 37839U 11058B   21027.63389432  .00000322  00000-0  29643-4 0  9990
2 37839  19.9629   3.2257 0018771 340.4192 175.0042 14.12701650480529
SRMSAT                  
1 37841U 11058D   21027.82153388  .00000278  00000-0  72737-5 0  9996
2 37841  19.9730  71.0522 0011782 187.8932 327.7153 14.10683581479980
M-CUBED & EXP-1 PRIME   
1 37855U 11061F   21027.50829390  .00002348  00000-0  12049-3 0  9991
2 37855 101.7257 237.8160 0168473 129.7191 231.9010 15.07136550504940
STRAND-1                
1 39090U 13009E   21027.50603676  .00000064  00000-0  37339-4 0  9998
2 39090  98.4365 232.9329 0008825 345.1226  14.9699 14.35165884414826
SOMP                    
1 39134U 13015E   21027.06699938  .00002117  00000-0  10134-3 0  9995
2 39134  64.8637 272.0225 0011431 218.9614 141.0692 15.21918245429698
BEESAT-3                
1 39135U 13015F   21027.16945745  .00001415  00000-0  76969-4 0  9996
2 39135  64.8671 298.6061 0015637 205.7344 154.3007 15.18861578429188
BEESAT-2                
1 39136U 13015G   21027.50424549  .00001842  00000-0  98424-4 0  9993
2 39136  64.8742 303.3434 0028697 262.4414  97.3453 15.18244262429113
ZACUBE-1 (TSHEPISOSAT)  
1 39417U 13066B   21027.48962060  .00000334  00000-0  48093-4 0  9995
2 39417  97.5803  19.2306 0057219 263.2023  96.2678 14.81416814388208
GOMX-1                  
1 39430U 13066Q   21027.72163099  .00000129  00000-0  32419-4 0  9999
2 39430  97.8090 318.9142 0150125 197.6909 161.9035 14.59525583382518
CUBEBUG-2 (LO-74)       
1 39440U 13066AA  21027.53154478  .00000458  00000-0  70214-4 0  9990
2 39440  97.6583   3.9873 0079354 333.8044  25.9161 14.76150282385638
FUNCUBE-1 (AO-73)       
1 39444U 13066AE  21027.49151211  .00000426  00000-0  58403-4 0  9992
2 39444  97.5723  21.5622 0056324 254.0635 105.4368 14.82302546386551
UWE-3                   
1 39446U 13066AG  21027.67789284  .00000400  00000-0  59447-4 0  9992
2 39446  97.6210  11.1912 0068500 299.0591  60.3771 14.78685415386293
SPROUT                  
1 39770U 14029E   21027.55779668  .00000962  00000-0  11050-3 0  9994
2 39770  97.9053 139.0955 0008047 316.9099  43.1479 14.88146211362385
UNISAT-6                
1 40012U 14033C   21027.53187551  .00000261  00000-0  45928-4 0  9996
2 40012  97.6864 237.2496 0058139 357.4367   2.6536 14.74232533355439
DUCHIFAT-1              
1 40021U 14033M   21027.56030971  .00000812  00000-0  87634-4 0  9994
2 40021  97.9613 326.3847 0011390 269.6942  90.2970 14.91159523359283
QB50P1                  
1 40025U 14033R   21027.53605809  .00000505  00000-0  59228-4 0  9990
2 40025  97.9269 317.9290 0011059 284.5359  75.4631 14.89315062358447
NUDT-PHONESAT           
1 40900U 15049B   21027.79903035  .00003561  00000-0  14384-3 0  9998
2 40900  97.4263  42.9004 0010329 274.5165 258.8800 15.25379931297374
ZDPS 2A                 
1 40901U 15049C   21027.83984272  .00001729  00000-0  85868-4 0  9996
2 40901  97.4634  36.6709 0011915 317.9685 141.7810 15.18970256296627
ZDPS 2B                 
1 40902U 15049D   21027.88127830  .00001865  00000-0  92308-4 0  9999
2 40902  97.4651  33.9978 0011927 314.9159 110.8028 15.18987614296603
XW-2A                   
1 40903U 15049E   21027.87457581  .00003682  00000-0  81708-4 0  9999
2 40903  97.2589  82.7164 0013314 159.7212 314.9003 15.44284036301095
KAITUO 1A               
1 40904U 15049F   21027.89993626  .00000471  00000-0  28003-4 0  9999
2 40904  97.4832  31.6437 0013658 331.5985 118.8949 15.15977339296246
2015-049G               
1 40905U 15049G   21027.82506330  .00000372  00000-0  23551-4 0  9998
2 40905  97.4947  28.6871 0014699 330.1163 113.6546 15.14803902296048
XW-2C                   
1 40906U 15049H   21027.82538333  .00000801  00000-0  44587-4 0  9996
2 40906  97.4832  31.9884 0013530 321.1927 116.7037 15.16447767296251
XW-2D                   
1 40907U 15049J   21027.78312579  .00001190  00000-0  64052-4 0  9995
2 40907  97.4815  31.6981 0012937 318.0720 127.6490 15.16731950296270
LILACSAT-2              
1 40908U 15049K   21027.92505600  .00000685  00000-0  40967-4 0  9998
2 40908  97.5000  29.8826 0014964 331.1112  52.6464 15.14267489295960
XW-2F                   
1 40910U 15049M   21027.72465832  .00001675  00000-0  84268-4 0  9993
2 40910  97.4715  34.5385 0012925 304.1708 174.1439 15.18554450296362
XW-2B                   
1 40911U 15049N   21027.71824053  .00001071  00000-0  58085-4 0  9995
2 40911  97.4825  32.3291 0012671 319.1230 158.5017 15.16651719296150
KAITUO 1B               
1 40912U 15049P   21027.88169627  .00001823  00000-0  85146-4 0  9996
2 40912  97.4475  39.0168 0012825 276.0916 168.5576 15.21028453296826
TIANWANG 1C (TW-1C)     
1 40926U 15051B   21027.82501744  .00245320  24429-4  73395-3 0  9997
2 40926  97.0469  89.2268 0002005 257.9689 212.6386 15.92348154302315
TIANWANG 1A (TW-1A)     
1 40928U 15051D   21027.86675830  .00005401  00000-0  11863-3 0  9992
2 40928  97.0909  56.1848 0011753  87.1199 356.0097 15.44366314299987
LAPAN-A2                
1 40931U 15052B   21027.72182286  .00000695  00000-0  77802-5 0  9997
2 40931   5.9999 176.0621 0012348 213.7512 146.1644 14.76660365288460
E-ST@R-II               
1 41459U 16025D   21027.78535890  .00003293  00000-0  16480-3 0  9993
2 41459  98.1217 155.8723 0162805 176.0521 184.2042 15.07338316261229
AAUSAT 4                
1 41460U 16025E   21027.62136801  .00006894  00000-0  32694-3 0  9992
2 41460  98.1197 158.9045 0150545 162.7799 197.8690 15.10088551261457
NUSAT-1 (FRESCO)        
1 41557U 16033B   21027.89631654  .00002100  00000-0  77520-4 0  9997
2 41557  97.3970 122.6998 0013697  20.3144  44.5253 15.28812687260050
BEESAT-4                
1 41619U 16040W   21027.59905079  .00003008  00000-0  12371-3 0  9996
2 41619  97.2910  87.5417 0012519 107.4073 252.8535 15.24842031243541
